[{"OBJECT_NAME":"YAOGAN-15","OBJECT_ID":"2012-029A","EPOCH":"2026-03-09T23:45:53.885664","MEAN_MOTION":13.18381612,"ECCENTRICITY":0.00255124,"INCLINATION":100.7439,"RA_OF_ASC_NODE":271.8969,"ARG_OF_PERICENTER":154.8606,"MEAN_ANOMALY":205.3754,"EPHEMERIS_TYPE":0,"CLASSIFICATION_TYPE":"U","NORAD_CAT_ID":38354,"ELEMENT_SET_NO":999,"REV_AT_EPOCH":66237,"BSTAR":0.0014389318,"MEAN_MOTION_DOT":5.19e-6,"MEAN_MOTION_DDOT":0},{"OBJECT_NAME":"ONEWEB-0254","OBJECT_ID":"2021-060F","EPOCH":"2026-03-09T21:44:51.771264","MEAN_MOTION":13.16592958,"ECCENTRICITY":0.00019474,"INCLINATION":87.9008,"RA_OF_ASC_NODE":248.5177,"ARG_OF_PERICENTER":100.9375,"MEAN_ANOMALY":259.1976,"EPHEMERIS_TYPE":0,"CLASSIFICATION_TYPE":"U","NORAD_CAT_ID":48972,"ELEMENT_SET_NO":999,"REV_AT_EPOCH":22652,"BSTAR":-0.00033537764,"MEAN_MOTION_DOT":-1.15e-6,"MEAN_MOTION_DDOT":0}]
